COMMENT,ORIGINATOR,NORAD_CAT_ID,OBJECT_NAME,OBJECT_TYPE,CLASSIFICATION_TYPE,INTLDES,EPOCH,EPOCH_MICROSECONDS,MEAN_MOTION,ECCENTRICITY,INCLINATION,RA_OF_ASC_NODE,ARG_OF_PERICENTER,MEAN_ANOMALY,EPHEMERIS_TYPE,ELEMENT_SET_NO,REV_AT_EPOCH,BSTAR,MEAN_MOTION_DOT,MEAN_MOTION_DDOT,FILE,TLE_LINE0,TLE_LINE1,TLE_LINE2,OBJECT_ID,OBJECT_NUMBER,SEMIMAJOR_AXIS,PERIOD,APOGEE,PERIGEE,DECAYED
"GENERATED VIA SPACETRACK.ORG API","18 SPCS","48904","SPACEBEE-111","PAYLOAD","U","21059AB","2021-08-09 14:49:24","63168","15.1246577","0.0012731","97.5208","349.8043","97.8249","262.4427","0","999","677","0.000083595","0.00001391","0","3093053","0 SPACEBEE-111","1 48904U 21059AB  21221.61763962  .00001391  00000-0  83595-4 0  9998","2 48904  97.5208 349.8043 0012731  97.8249 262.4427 15.12465770  6777","2021-059AB","48904","6906.820","95.209","537.478","519.892","1"
"GENERATED VIA SPACETRACK.ORG API","18 SPCS","48904","SPACEBEE-111","PAYLOAD","U","21059AB","2021-08-10 08:17:21","603552","15.12467237","0.0012727","97.5209","350.5213","95.6447","264.6236","0","999","688","0.000074969","0.00001241","0","3093515","0 SPACEBEE-111","1 48904U 21059AB  21222.34538893  .00001241  00000-0  74969-4 0  9991","2 48904  97.5209 350.5213 0012727  95.6447 264.6236 15.12467237  6881","2021-059AB","48904","6906.816","95.209","537.471","519.890","1"
"GENERATED VIA SPACETRACK.ORG API","18 SPCS","48904","SPACEBEE-111","PAYLOAD","U","21059AB","2021-08-10 19:24:14","536512","15.12468722","0.0012725","97.521","350.9776","94.2789","265.9896","0","999","695","0.000075566","0.00001251","0","3093611","0 SPACEBEE-111","1 48904U 21059AB  21222.80850158  .00001251  00000-0  75566-4 0  9998","2 48904  97.5210 350.9776 0012725  94.2789 265.9896 15.12468722  6957","2021-059AB","48904","6906.811","95.209","537.465","519.887","1"
"GENERATED VIA SPACETRACK.ORG API","18 SPCS","48904","SPACEBEE-111","PAYLOAD","U","21059AB","2021-08-10 20:59:30","691392","15.12468079","0.0012724","97.521","351.0428","94.0889","266.1796","0","999","696","0.000067465","0.0000111","0","3093716","0 SPACEBEE-111","1 48904U 21059AB  21222.87466078  .00001110  00000-0  67465-4 0  9992","2 48904  97.5210 351.0428 0012724  94.0889 266.1796 15.12468079  6969","2021-059AB","48904","6906.813","95.209","537.466","519.890","1"
"GENERATED VIA SPACETRACK.ORG API","18 SPCS","48904","SPACEBEE-111","PAYLOAD","U","21059AB","2021-08-11 08:06:23","575104","15.12470115","0.0012722","97.521","351.4991","92.6651","267.6036","0","999","703","0.00007403","0.00001225","0","3094268","0 SPACEBEE-111","1 48904U 21059AB  21223.33777286  .00001225  00000-0  74030-4 0  9993","2 48904  97.5210 351.4991 0012722  92.6651 267.6036 15.12470115  7033","2021-059AB","48904","6906.807","95.208","537.459","519.885","1"
"GENERATED VIA SPACETRACK.ORG API","18 SPCS","48904","SPACEBEE-111","PAYLOAD","U","21059AB","2021-08-11 16:02:44","210400","15.12470753","0.0012726","97.5211","351.825","91.6864","268.5825","0","999","708","0.000071098","0.00001174","0","3094490","0 SPACEBEE-111","1 48904U 21059AB  21223.66856725  .00001174  00000-0  71098-4 0  9999","2 48904  97.5211 351.8250 0012726  91.6864 268.5825 15.12470753  7084","2021-059AB","48904","6906.805","95.208","537.459","519.880","1"
"GENERATED VIA SPACETRACK.ORG API","18 SPCS","48904","SPACEBEE-111","PAYLOAD","U","21059AB","2021-08-12 07:55:25","442976","15.12472246","0.0012725","97.5212","352.4768","89.681","270.5879","0","999","718","0.000068382","0.00001126","0","3094896","0 SPACEBEE-111","1 48904U 21059AB  21224.33015559  .00001126  00000-0  68382-4 0  9995","2 48904  97.5212 352.4768 0012725  89.6810 270.5879 15.12472246  7185","2021-059AB","48904","6906.800","95.208","537.454","519.876","1"
"GENERATED VIA SPACETRACK.ORG API","18 SPCS","48904","SPACEBEE-111","PAYLOAD","U","21059AB","2021-08-12 07:55:25","442976","15.12472246","0.0012725","97.5212","352.4768","89.681","270.5879","0","999","718","0.000068382","0.00001126","0","3094993","0 SPACEBEE-111","1 48904U 21059AB  21224.33015559  .00001126  00000-0  68382-4 0  9995","2 48904  97.5212 352.4768 0012725  89.6810 270.5879 15.12472246  7185","2021-059AB","48904","6906.800","95.208","537.454","519.876","1"
"GENERATED VIA SPACETRACK.ORG API","18 SPCS","48904","SPACEBEE-111","PAYLOAD","U","21059AB","2021-08-13 07:44:27","163968","15.12475143","0.001273","97.5213","353.4546","86.6701","273.5986","0","999","733","0.00007314","0.00001209","0","3095469","0 SPACEBEE-111","1 48904U 21059AB  21225.32253662  .00001209  00000-0  73140-4 0  9994","2 48904  97.5213 353.4546 0012730  86.6701 273.5986 15.12475143  7331","2021-059AB","48904","6906.791","95.208","537.449","519.864","1"
"GENERATED VIA SPACETRACK.ORG API","18 SPCS","48904","SPACEBEE-111","PAYLOAD","U","21059AB","2021-08-13 20:26:36","34944","15.1247616","0.0012724","97.5214","353.9761","85.0923","275.176","0","999","741","0.000071167","0.00001175","0","3095871","0 SPACEBEE-111","1 48904U 21059AB  21225.85180596  .00001175  00000-0  71167-4 0  9996","2 48904  97.5214 353.9761 0012724  85.0923 275.1760 15.12476160  7415","2021-059AB","48904","6906.788","95.208","537.442","519.865","1"
"GENERATED VIA SPACETRACK.ORG API","18 SPCS","48904","SPACEBEE-111","PAYLOAD","U","21059AB","2021-08-13 20:26:36","34944","15.1247616","0.0012724","97.5214","353.9761","85.0923","275.176","0","999","741","0.000071167","0.00001175","0","3095980","0 SPACEBEE-111","1 48904U 21059AB  21225.85180596  .00001175  00000-0  71167-4 0  9996","2 48904  97.5214 353.9761 0012724  85.0923 275.1760 15.12476160  7415","2021-059AB","48904","6906.788","95.208","537.442","519.865","1"
"GENERATED VIA SPACETRACK.ORG API","18 SPCS","48904","SPACEBEE-111","PAYLOAD","U","21059AB","2021-08-14 07:33:28","784736","15.12476811","0.001273","97.5214","354.4324","83.6945","276.5735","0","999","748","0.000068126","0.00001122","0","3096333","0 SPACEBEE-111","1 48904U 21059AB  21226.31491649  .00001122  00000-0  68126-4 0  9995","2 48904  97.5214 354.4324 0012730  83.6945 276.5735 15.12476811  7488","2021-059AB","48904","6906.786","95.208","537.444","519.859","1"
"GENERATED VIA SPACETRACK.ORG API","18 SPCS","48904","SPACEBEE-111","PAYLOAD","U","21059AB","2021-08-14 18:40:21","486144","15.12477966","0.0012726","97.5214","354.8887","82.3155","277.9521","0","999","755","0.000069814","0.00001152","0","3096504","0 SPACEBEE-111","1 48904U 21059AB  21226.77802646  .00001152  00000-0  69814-4 0  9996","2 48904  97.5214 354.8887 0012726  82.3155 277.9521 15.12477966  7558","2021-059AB","48904","6906.783","95.208","537.437","519.858","1"
"GENERATED VIA SPACETRACK.ORG API","18 SPCS","48904","SPACEBEE-111","PAYLOAD","U","21059AB","2021-08-14 21:50:53","680128","15.12478274","0.0012723","97.5214","355.0191","81.9048","278.3625","0","999","757","0.000070101","0.00001157","0","3096635","0 SPACEBEE-111","1 48904U 21059AB  21226.91034352  .00001157  00000-0  70101-4 0  9999","2 48904  97.5214 355.0191 0012723  81.9048 278.3625 15.12478274  7577","2021-059AB","48904","6906.782","95.208","537.434","519.859","1"
"GENERATED VIA SPACETRACK.ORG API","18 SPCS","48904","SPACEBEE-111","PAYLOAD","U","21059AB","2021-08-15 07:22:30","238752","15.12479315","0.0012708","97.5214","355.4102","80.7013","279.5654","0","999","763","0.000071796","0.00001186","0","3096993","0 SPACEBEE-111","1 48904U 21059AB  21227.30729443  .00001186  00000-0  71796-4 0  9998","2 48904  97.5214 355.4102 0012708  80.7013 279.5654 15.12479315  7634","2021-059AB","48904","6906.779","95.208","537.421","519.867","1"
"GENERATED VIA SPACETRACK.ORG API","18 SPCS","48904","SPACEBEE-111","PAYLOAD","U","21059AB","2021-08-16 07:11:31","495776","15.12482434","0.0012676","97.5214","356.388","77.6951","282.5698","0","999","778","0.000079223","0.00001316","0","3097597","0 SPACEBEE-111","1 48904U 21059AB  21228.29967009  .00001316  00000-0  79223-4 0  9997","2 48904  97.5214 356.3880 0012676  77.6951 282.5698 15.12482434  7781","2021-059AB","48904","6906.769","95.208","537.389","519.879","1"
"GENERATED VIA SPACETRACK.ORG API","18 SPCS","48904","SPACEBEE-111","PAYLOAD","U","21059AB","2021-08-16 07:11:31","495776","15.12482434","0.0012676","97.5214","356.388","77.6951","282.5698","0","999","778","0.000079223","0.00001316","0","3097703","0 SPACEBEE-111","1 48904U 21059AB  21228.29967009  .00001316  00000-0  79223-4 0  9997","2 48904  97.5214 356.3880 0012676  77.6951 282.5698 15.12482434  7781","2021-059AB","48904","6906.769","95.208","537.389","519.879","1"
"GENERATED VIA SPACETRACK.ORG API","18 SPCS","48904","SPACEBEE-111","PAYLOAD","U","21059AB","2021-08-16 21:28:56","201088","15.12483732","0.0012649","97.5214","356.9747","75.8903","284.3733","0","999","787","0.000077672","0.00001289","0","3097915","0 SPACEBEE-111","1 48904U 21059AB  21228.89509492  .00001289  00000-0  77672-4 0  9996","2 48904  97.5214 356.9747 0012649  75.8903 284.3733 15.12483732  7878","2021-059AB","48904","6906.765","95.208","537.367","519.894","1"
"GENERATED VIA SPACETRACK.ORG API","18 SPCS","48904","SPACEBEE-111","PAYLOAD","U","21059AB","2021-08-17 08:35:48","702048","15.12484647","0.0012622","97.5215","357.431","74.4937","285.7686","0","999","794","0.00007485","0.00001239","0","3098258","0 SPACEBEE-111","1 48904U 21059AB  21229.35820257  .00001239  00000-0  74850-4 0  9993","2 48904  97.5215 357.4310 0012622  74.4937 285.7686 15.12484647  7940","2021-059AB","48904","6906.763","95.208","537.345","519.910","1"
"GENERATED VIA SPACETRACK.ORG API","18 SPCS","48904","SPACEBEE-111","PAYLOAD","U","21059AB","2021-08-17 08:35:48","702048","15.12484647","0.0012622","97.5215","357.431","74.4937","285.7686","0","999","794","0.00007485","0.00001239","0","3098399","0 SPACEBEE-111","1 48904U 21059AB  21229.35820257  .00001239  00000-0  74850-4 0  9993","2 48904  97.5215 357.4310 0012622  74.4937 285.7686 15.12484647  7940","2021-059AB","48904","6906.763","95.208","537.345","519.910","1"
